METEOSAT-10 (MSG-3)     
1 38552U 12035B   24174.30772909  .00000008  00000+0  00000+0 0  9995
2 38552   2.9762  61.0310 0000792 337.4772 343.3984  1.00267773 43580
METOP-B                 
1 38771U 12049A   24174.80421039  .00000184  00000+0  10372-3 0  9995
2 38771  98.6276 231.9018 0001549  90.9279 269.2076 14.21441128610349
INSAT-3D                
1 39216U 13038B   24174.56306654 -.00000141  00000+0  00000+0 0  9994
2 39216   0.0547 103.4661 0000502 139.5755 312.9739  1.00272139 39812
FENGYUN 3C              
1 39260U 13052A   24174.88964745  .00000149  00000+0  95650-4 0  9992
2 39260  98.4280 174.1936 0010157 315.7653  44.2709 14.16220105556136
METEOR-M 2              
1 40069U 14037A   24174.87487697  .00000133  00000+0  80541-4 0  9996
2 40069  98.4361 168.8584 0005548 355.1668   4.9455 14.20982510516436
HIMAWARI-8              
1 40267U 14060A   24174.35327133 -.00000259  00000+0  00000+0 0  9990
2 40267   0.0563 126.6715 0000872 346.9032  65.2956  1.00270325 35491
FENGYUN 2G              
1 40367U 14090A   24174.57350260 -.00000290  00000+0  00000+0 0  9990
2 40367   3.8037  81.4817 0003043 107.5698  28.3493  1.00267888 34734
METEOSAT-11 (MSG-4)     
1 40732U 15034A   24171.59020498  .00000087  00000+0  00000+0 0  9994
2 40732   1.3918  69.1738 0001876 153.3473 267.8398  1.00279855   552
ELEKTRO-L 2             
1 41105U 15074A   24174.09015918 -.00000103  00000+0  00000+0 0  9992
2 41105   4.8535  79.4160 0000553 129.4587  79.8886  1.00271180 31239
INSAT-3DR               
1 41752U 16054A   24174.53708156 -.00000062  00000+0  00000+0 0  9995
2 41752   0.1161  93.7127 0009998 174.4385 270.3945  1.00271675 28555
HIMAWARI-9              
1 41836U 16064A   24174.59442286 -.00000259  00000+0  00000+0 0  9992
2 41836   0.0188 180.8912 0001104 277.4784 167.6293  1.00273591 27949
GOES 16                 
1 41866U 16071A   24174.29276118 -.00000231  00000+0  00000+0 0  9999
2 41866   0.0696 250.9562 0000544 202.6448 207.5522  1.00270359 27836
FENGYUN 4A              
1 41882U 16077A   24174.61900066 -.00000186  00000+0  00000+0 0  9994
2 41882   0.4715  85.7387 0008410 344.9970 150.3288  1.00268196 27660
CYGFM05                 
1 41884U 16078A   24174.57264239  .00008266  00000+0  30335-3 0  9991
2 41884  34.9551 266.9873 0012267 245.9170 114.0262 15.27133846416907
CYGFM04                 
1 41885U 16078B   24174.55707617  .00007749  00000+0  27685-3 0  9991
2 41885  34.9421 251.1044 0009747 268.6824  91.2774 15.28051186416997
CYGFM02                 
1 41886U 16078C   24174.58068287  .00008216  00000+0  29034-3 0  9998
2 41886  34.9520 253.1992 0012569 256.4209 103.5106 15.28368696417084
CYGFM01                 
1 41887U 16078D   24174.55575524  .00007826  00000+0  28895-3 0  9993
2 41887  34.9487 270.9436 0011775 234.5281 125.4335 15.26952183416839
CYGFM08                 
1 41888U 16078E   24174.56992329  .00007981  00000+0  28647-3 0  9998
2 41888  34.9495 258.9780 0012896 258.9183 101.0082 15.27861526417014
CYGFM07                 
1 41890U 16078G   24174.54601744  .00007945  00000+0  28276-3 0  9995
2 41890  34.9492 250.5688 0009572 267.1194  92.8426 15.28176380417006
CYGFM03                 
1 41891U 16078H   24174.58128946  .00008174  00000+0  29156-3 0  9991
2 41891  34.9499 251.5377 0010578 250.8374 109.1197 15.28089455416997
FENGYUN 3D              
1 43010U 17072A   24174.87528439  .00000121  00000+0  79311-4 0  9997
2 43010  98.9109 129.5632 0001314   9.1784 350.9415 14.19360040342220
NOAA 20 (JPSS-1)        
1 43013U 17073A   24174.83959423  .00000103  00000+0  69292-4 0  9995
2 43013  98.7065 112.6670 0001170 134.3882 225.7390 14.19598894341700
GOES 17                 
1 43226U 18022A   24174.50155700 -.00000075  00000+0  00000+0 0  9992
2 43226   0.0387 150.2021 0001085 329.7109 227.1107  1.00271447 23161
FENGYUN 2H              
1 43491U 18050A   24174.53821284 -.00000113  00000+0  00000+0 0  9990
2 43491   1.1561  87.2559 0001869  35.4410  61.4786  1.00268789 22179
METOP-C                 
1 43689U 18087A   24174.84280063  .00000183  00000+0  10393-3 0  9993
2 43689  98.7231 234.0535 0003104  82.0118 278.1411 14.21477471291927
GEO-KOMPSAT-2A          
1 43823U 18100A   24174.83416986 -.00000329  00000+0  00000+0 0  9996
2 43823   0.0508 141.1762 0002445 308.9240 249.9595  1.00271522 20395
METEOR-M2 2             
1 44387U 19038A   24174.84231295  .00000055  00000+0  43645-4 0  9994
2 44387  98.8268 144.0882 0000838   9.1261 350.9932 14.23895532258192
ARKTIKA-M 1             
1 47719U 21016A   24173.73801457  .00000180  00000+0  00000+0 0  9997
2 47719  63.1392 151.2542 6942940 268.6906  17.9282  2.00609316 24232
FENGYUN 3E              
1 49008U 21062A   24174.84440294  .00000031  00000+0  35240-4 0  9996
2 49008  98.7316 176.0473 0002247  46.7183 313.4181 14.19759969153795
GOES 18                 
1 51850U 22021A   24174.78140928  .00000111  00000+0  00000+0 0  9994
2 51850   0.0069 229.1469 0000573 218.0396 328.5643  1.00272670  8546
NOAA 21 (JPSS-2)        
1 54234U 22150A   24174.52261366  .00000108  00000+0  72157-4 0  9991
2 54234  98.7519 112.3538 0001829 102.4168 257.7213 14.19528705 83734
METEOSAT-12 (MTG-I1)    
1 54743U 22170C   24174.30764206  .00000009  00000+0  00000+0 0  9998
2 54743   0.5195  42.2498 0001934  46.7631 292.2694  1.00274400  5702
TIANMU-1 03             
1 55973U 23039A   24174.84180712  .00007817  00000+0  33460-3 0  9996
2 55973  97.4692 325.4273 0007518 144.8030 215.3704 15.23054451 69710
TIANMU-1 04             
1 55974U 23039B   24174.82502790  .00007801  00000+0  33527-3 0  9996
2 55974  97.4614 324.9661 0007680 145.2587 214.9152 15.22916557 69706
TIANMU-1 05             
1 55975U 23039C   24174.87440516  .00000148  00000+0  93041-5 0  9995
2 55975  97.4658 325.3462 0006363 157.3305 202.8214 15.22957850 69704
TIANMU-1 06             
1 55976U 23039D   24174.85815738  .00001401  00000+0  62579-4 0  9990
2 55976  97.4675 325.4486 0006333 160.6340 199.5139 15.23014238 69707
METEOR-M2 3             
1 57166U 23091A   24174.87752279  .00000037  00000+0  35508-4 0  9999
2 57166  98.7124 229.5001 0005109 109.4027 250.7704 14.23900116 51430
TIANMU-1 07             
1 57399U 23101A   24174.83347755  .00005745  00000+0  29202-3 0  9998
2 57399  97.3626 231.8278 0005942 153.8066 206.3469 15.17224803 51287
TIANMU-1 08             
1 57400U 23101B   24174.80280877  .00004965  00000+0  25270-3 0  9993
2 57400  97.3615 231.6704 0007985 162.8339 197.3167 15.17236026 51275
TIANMU-1 09             
1 57401U 23101C   24174.85172833  .00005635  00000+0  28643-3 0  9993
2 57401  97.3569 231.5570 0008506 159.4333 200.7245 15.17217328 51281
TIANMU-1 10             
1 57402U 23101D   24174.81797580  .00005393  00000+0  27432-3 0  9998
2 57402  97.3650 231.8051 0010708 160.1804 199.9848 15.17197914 51274
FENGYUN 3F              
1 57490U 23111A   24174.79848618  .00000118  00000+0  76507-4 0  9990
2 57490  98.7695 243.8782 0001977  86.4556 273.6846 14.19828362 46069
ARKTIKA-M 2             
1 58584U 23198A   24169.48278552  .00000150  00000+0  00000+0 0  9990
2 58584  63.2417 235.5556 6979408 269.9021  17.2518  2.00611967  3681
TIANMU-1 11             
1 58645U 23205A   24174.86485568  .00004797  00000+0  25870-3 0  9999
2 58645  97.4020 199.8076 0012116  33.6924 326.5076 15.15174042 27378
TIANMU-1 12             
1 58646U 23205B   24174.88025387  .00005485  00000+0  29510-3 0  9991
2 58646  97.4006 199.7532 0010421  27.7670 332.4117 15.15212186 27361
TIANMU-1 13             
1 58647U 23205C   24174.84693254  .00004769  00000+0  25712-3 0  9996
2 58647  97.4035 199.7168 0009889  14.1208 346.0299 15.15205960 27355
TIANMU-1 14             
1 58648U 23205D   24174.83078918  .00005145  00000+0  27708-3 0  9996
2 58648  97.3961 199.5604 0010366  14.0099 346.1419 15.15208294 27353
TIANMU-1 19             
1 58660U 23208A   24174.83799311  .00005335  00000+0  28772-3 0  9993
2 58660  97.4127 287.0863 0008610 354.7027   5.4113 15.15156394 27029
TIANMU-1 20             
1 58661U 23208B   24174.83858437  .00005293  00000+0  27910-3 0  9995
2 58661  97.4055 287.0620 0009655   4.4539 355.6778 15.15951477 27031
TIANMU-1 21             
1 58662U 23208C   24174.82825882  .00005520  00000+0  28362-3 0  9998
2 58662  97.4092 287.3207 0009291   4.7274 355.4045 15.16846043 27041
TIANMU-1 22             
1 58663U 23208D   24174.78849378  .00006103  00000+0  32895-3 0  9994
2 58663  97.4111 287.1128 0005355  23.8546 336.2934 15.15133608 27022
TIANMU-1 15             
1 58700U 24004A   24174.82901700  .00004792  00000+0  25903-3 0  9998
2 58700  97.4618 355.8287 0010722  40.9712 319.2324 15.15113436 25629
TIANMU-1 16             
1 58701U 24004B   24174.81178522  .00004715  00000+0  25463-3 0  9992
2 58701  97.4543 355.6868 0010837  46.2990 313.9138 15.15147868 25624
TIANMU-1 17             
1 58702U 24004C   24174.86282795  .00005109  00000+0  27595-3 0  9992
2 58702  97.4587 355.8693 0008555  42.8118 317.3779 15.15122774 25627
TIANMU-1 18             
1 58703U 24004D   24174.84596472  .00005104  00000+0  27548-3 0  9994
2 58703  97.4603 355.9257 0007583  34.9624 325.2105 15.15154035 25624
INSAT-3DS               
1 58990U 24033A   24171.63670715 -.00000142  00000+0  00000+0 0  9999
2 58990   0.0159 349.8168 0010402 105.1251 125.6022  1.00268037   992
METEOR-M2 4             
1 59051U 24039A   24174.83326120  .00000040  00000+0  37388-4 0  9997
2 59051  98.5978 136.5874 0008198 105.3853 254.8231 14.22233380 16294
STARLINK-31654          
1 59858U 24098A   24174.57426044 -.00001078  00000+0 -18510-4 0  9994
2 59858  43.0048 243.7516 0004006 297.3744  62.6705 15.40702696  5832
